ONEWEB-0331             
1 49198U 21083N   24158.44204555  .00000042  00000+0  74890-4 0  9991
2 49198  87.9135 122.9141 0001879  82.6937 277.4409 13.18684923133663
ONEWEB-0333             
1 49199U 21083P   24158.16103669  .00000333  00000+0  87823-3 0  9997
2 49199  87.8927 107.7562 0002190  85.6146 274.5234 13.13469434134929
ONEWEB-0334             
1 49200U 21083Q   24157.67927174  .00000181  00000+0  41239-3 0  9992
2 49200  87.9214  62.0142 0002543  94.5299 265.6125 13.20771230138910
ONEWEB-0335             
1 49201U 21083R   24157.85156660  .00000326  00000+0  85690-3 0  9997
2 49201  87.8926 107.8063 0002074  77.7446 282.3915 13.13467986133602
ONEWEB-0336             
1 49202U 21083S   24157.59287496 -.00000189  00000+0 -55322-3 0  9999
2 49202  87.8925 107.8540 0002093  86.3420 273.7948 13.13470071134869
ONEWEB-0337             
1 49203U 21083T   24157.83079241  .00000059  00000+0  12653-3 0  9998
2 49203  87.8924 107.8053 0002001  78.4716 281.6637 13.13469282133591
ONEWEB-0338             
1 49204U 21083U   24158.21587857  .00000123  00000+0  27056-3 0  9994
2 49204  87.9224  61.8904 0002376  81.2999 278.8404 13.20771560140300
ONEWEB-0339             
1 49205U 21083V   24158.22292977  .00000251  00000+0  65298-3 0  9994
2 49205  87.8924 107.7227 0002122  78.3420 281.7947 13.13469801134920
